ONEWEB-0674             
1 55833U 23029AP  25286.17836067 -.00000177  00000+0 -51202-3 0  9990
2 55833  87.9044 338.9377 0001377  96.4487 263.6799 13.14503696126968
ONEWEB-0675             
1 55834U 23029AQ  25286.19611920  .00000026  00000+0  33114-4 0  9996
2 55834  87.9266 354.1269 0002177  99.0796 261.0583 13.19723604126349
ONEWEB-0720             
1 55835U 23029AR  25286.26403839  .00000009  00000+0 -90799-5 0  9998
2 55835  87.9264 354.1105 0001851 112.4676 247.6653 13.19725033126270
ONEWEB-0537             
1 56046U 23043A   25286.28043608  .00002985  00000+0  77684-2 0  9994
2 56046  87.8994 277.9587 0001982  84.3797 275.7560 13.16623288126473
ONEWEB-0538             
1 56047U 23043B   25286.27414421  .00000090  00000+0  20079-3 0  9991
2 56047  87.8972 277.9690 0002108  93.4169 266.7203 13.16593179126480
ONEWEB-0546             
1 56048U 23043C   25286.26148178  .00000014  00000+0  24560-5 0  9991
2 56048  87.8984 277.9564 0002428  76.5067 283.6335 13.16594209126476
ONEWEB-0547             
1 56049U 23043D   25286.25188467 -.00000005  00000+0 -44162-4 0  9997
2 56049  87.9171 293.2449 0001958  95.4202 264.7155 13.21879329125606
ONEWEB-0548             
1 56050U 23043E   25286.21080994  .00000052  00000+0  10225-3 0  9993
2 56050  87.8962 277.9835 0001425  78.1730 281.9561 13.16593311126461
